NORAD_CAT_ID,OBJECT_NAME,OBJECT_TYPE,EPOCH,MEAN_MOTION,ECCENTRICITY,INCLINATION,RA_OF_ASC_NODE,ARG_OF_PERICENTER,MEAN_ANOMALY,BSTAR,MEAN_MOTION_DOT,MEAN_MOTION_DDOT,TLE_LINE0,TLE_LINE1,TLE_LINE2,SEMIMAJOR_AXIS,PERIOD,APOGEE,PERIGEE,DECAYED
53395.0,STARLINK-4534,PAYLOAD,2023-10-13 18:09:12,15.08841029,0.000112,53.2154,105.3254,88.7451,271.367,8.144e-05,1.009e-05,0.0,0 STARLINK-4534,1 53395U 22097H   23286.75639574  .00001009  00000-0  81440-4 0  9993,2 53395  53.2154 105.3254 0001120  88.7451 271.3670 15.08841029 65975,6917.877,95.437,540.517,538.967,0.0
53395.0,STARLINK-4534,PAYLOAD,2023-10-14 05:16:54,15.08844748,0.0001116,53.2153,103.2438,87.4088,272.7032,0.00011459,1.537e-05,0.0,0 STARLINK-4534,1 53395U 22097H   23287.22007346  .00001537  00000-0  11459-3 0  9990,2 53395  53.2153 103.2438 0001116  87.4088 272.7032 15.08844748 66049,6917.866,95.437,540.503,538.959,0.0
53395.0,STARLINK-4534,PAYLOAD,2023-10-14 17:59:59,15.08842942,0.0001045,53.2162,100.8649,89.521,270.5902,6.9372e-05,8.17e-06,0.0,0 STARLINK-4534,1 53395U 22097H   23287.74999497  .00000817  00000-0  69372-4 0  9992,2 53395  53.2162 100.8649 0001045  89.5210 270.5902 15.08842942 65637,6917.871,95.437,540.459,539.013,0.0
53395.0,STARLINK-4534,PAYLOAD,2023-10-15 11:29:14,15.0883964,0.0001257,53.2162,97.5946,89.2092,270.9045,5.6628e-05,6.13e-06,0.0,0 STARLINK-4534,1 53395U 22097H   23288.47863676  .00000613  00000-0  56628-4 0  9996,2 53395  53.2162  97.5946 0001257  89.2092 270.9045 15.08839640 66239,6917.881,95.438,540.616,538.877,0.0
53395.0,STARLINK-4534,PAYLOAD,2023-10-15 17:50:46,15.08842129,0.0001107,53.2163,96.4043,93.4653,266.6466,5.3435e-05,5.63e-06,0.0,0 STARLINK-4534,1 53395U 22097H   23288.74359458  .00000563  00000-0  53435-4 0  9991,2 53395  53.2163  96.4043 0001107  93.4653 266.6466 15.08842129 66279,6917.874,95.437,540.505,538.973,0.0
53395.0,STARLINK-4534,PAYLOAD,2023-10-16 14:30:47,15.08836797,0.0001109,53.2161,92.5392,88.5822,271.5297,5.3346e-05,5.61e-06,0.0,0 STARLINK-4534,1 53395U 22097H   23289.60471862  .00000561  00000-0  53346-4 0  9990,2 53395  53.2161  92.5392 0001109  88.5822 271.5297 15.08836797 66402,6917.89,95.438,540.522,538.988,0.0
53395.0,STARLINK-4534,PAYLOAD,2023-10-16 16:06:10,15.08838152,0.0001115,53.2163,92.2417,89.0828,271.0292,6.3391e-05,7.21e-06,0.0,0 STARLINK-4534,1 53395U 22097H   23289.67095758  .00000721  00000-0  63391-4 0  9992,2 53395  53.2163  92.2417 0001115  89.0828 271.0292 15.08838152 65921,6917.886,95.438,540.522,538.98,0.0
53395.0,STARLINK-4534,PAYLOAD,2023-10-16 20:52:19,15.08842223,0.0001162,53.2166,91.3477,94.9765,265.136,4.0917e-05,3.63e-06,0.0,0 STARLINK-4534,1 53395U 22097H   23289.86967539  .00000363  00000-0  40917-4 0  9999,2 53395  53.2166  91.3477 0001162  94.9765 265.1360 15.08842223 66449,6917.874,95.437,540.542,538.935,0.0
53395.0,STARLINK-4534,PAYLOAD,2023-10-17 11:10:48,15.08837547,0.0001249,53.2167,88.6709,101.6961,258.4171,5.4492e-05,5.79e-06,0.0,0 STARLINK-4534,1 53395U 22097H   23290.46583896  .00000579  00000-0  54492-4 0  9999,2 53395  53.2167  88.6709 0001249 101.6961 258.4171 15.08837547 66535,6917.888,95.438,540.617,538.889,0.0
53395.0,STARLINK-4534,PAYLOAD,2023-10-17 17:32:20,15.08837864,0.0001175,53.2172,87.4824,89.688,270.4246,0.00011535,1.548e-05,0.0,0 STARLINK-4534,1 53395U 22097H   23290.73079798  .00001548  00000-0  11535-3 0  9997,2 53395  53.2172  87.4824 0001175  89.6880 270.4246 15.08837864 66572,6917.887,95.438,540.565,538.939,0.0
53395.0,STARLINK-4534,PAYLOAD,2023-10-18 03:04:40,15.088321,0.000109,53.2166,85.6984,82.8097,277.3019,0.00017639,2.52e-05,0.0,0 STARLINK-4534,1 53395U 22097H   23291.12824099  .00002520  00000-0  17639-3 0  9995,2 53395  53.2166  85.6984 0001090  82.8097 277.3019 15.08832100 66148,6917.905,95.438,540.524,539.015,0.0
53395.0,STARLINK-4534,PAYLOAD,2023-10-18 12:36:58,15.08837244,0.0001303,53.217,83.9142,80.6376,279.4763,4.6267e-05,4.48e-06,0.0,0 STARLINK-4534,1 53395U 22097H   23291.52568177  .00000448  00000-0  46267-4 0  9998,2 53395  53.2170  83.9142 0001303  80.6376 279.4763 15.08837244 66696,6917.889,95.438,540.655,538.852,0.0
53395.0,STARLINK-4534,PAYLOAD,2023-10-19 02:55:26,15.08846746,0.0001,53.2168,81.24,83.8386,276.272,4.6335e-05,4.5e-06,0.0,0 STARLINK-4534,1 53395U 22097H   23292.12183468  .00000450  00000-0  46335-4 0  9990,2 53395  53.2168  81.2400 0001000  83.8386 276.2720 15.08846746 66292,6917.86,95.437,540.417,539.033,0.0
53395.0,STARLINK-4534,PAYLOAD,2023-10-19 09:16:59,15.08842763,0.0001361,53.2165,80.0505,94.1356,265.9792,8.5594e-05,1.075e-05,0.0,0 STARLINK-4534,1 53395U 22097H   23292.38679662  .00001075  00000-0  85594-4 0  9998,2 53395  53.2165  80.0505 0001361  94.1356 265.9792 15.08842763 66822,6917.872,95.437,540.678,538.795,0.0
53395.0,STARLINK-4534,PAYLOAD,2023-10-19 18:49:17,15.08850047,0.0001356,53.2164,78.2668,96.2896,263.8251,0.00010945,1.455e-05,0.0,0 STARLINK-4534,1 53395U 22097H   23292.78423014  .00001455  00000-0  10945-3 0  9999,2 53395  53.2164  78.2668 0001356  96.2896 263.8251 15.08850047 66883,6917.85,95.437,540.653,538.777,0.0
53395.0,STARLINK-4534,PAYLOAD,2023-10-20 02:46:14,15.08836735,0.0001564,53.2139,76.7776,82.7255,277.3915,3.2455e-05,2.29e-06,0.0,0 STARLINK-4534,1 53395U 22097H   23293.11544107  .00000229  00000-0  32455-4 0  9993,2 53395  53.2139  76.7776 0001564  82.7255 277.3915 15.08836735 66445,6917.89,95.438,540.837,538.673,0.0
53395.0,STARLINK-4534,PAYLOAD,2023-10-20 09:07:46,15.08834639,0.0001715,53.2169,75.5886,81.8469,278.2717,2.3278e-05,8.2e-07,0.0,0 STARLINK-4534,1 53395U 22097H   23293.38040391  .00000082  00000-0  23278-4 0  9998,2 53395  53.2169  75.5886 0001715  81.8469 278.2717 15.08834639 66971,6917.897,95.438,540.948,538.575,0.0
53395.0,STARLINK-4534,PAYLOAD,2023-10-21 12:09:19,15.08842428,0.0001932,53.2163,70.5335,82.8093,277.3119,-2.4045e-05,-6.71e-06,0.0,0 STARLINK-4534,1 53395U 22097H   23294.50648123 -.00000671  00000-0 -24045-4 0  9999,2 53395  53.2163  70.5335 0001932  82.8093 277.3119 15.08842428 67145,6917.873,95.437,541.075,538.401,0.0
53395.0,STARLINK-4534,PAYLOAD,2023-10-21 18:30:52,15.08841117,0.0001993,53.2127,69.3437,80.0213,280.1004,3.8586e-05,3.26e-06,0.0,0 STARLINK-4534,1 53395U 22097H   23294.77143785  .00000326  00000-0  38586-4 0  9992,2 53395  53.2127  69.3437 0001993  80.0213 280.1004 15.08841117 66693,6917.877,95.437,541.121,538.363,0.0
53395.0,STARLINK-4534,PAYLOAD,2023-10-22 02:27:48,15.08831639,0.0002325,53.2163,67.8574,87.3573,272.7685,1.7626e-05,-8e-08,0.0,0 STARLINK-4534,1 53395U 22097H   23295.10264663 -.00000008  00000-0  17626-4 0  9999,2 53395  53.2163  67.8574 0002325  87.3573 272.7685 15.08831639 66743,6917.906,95.438,541.379,538.163,0.0
53395.0,STARLINK-4534,PAYLOAD,2023-10-22 13:35:30,15.08827873,0.0001767,53.2163,65.7752,95.8411,264.2782,-1.9093e-05,-5.92e-06,0.0,0 STARLINK-4534,1 53395U 22097H   23295.56633039 -.00000592  00000-0 -19093-4 0  9995,2 53395  53.2163  65.7752 0001767  95.8411 264.2782 15.08827873 67304,6917.917,95.438,541.005,538.56,0.0
53395.0,STARLINK-4534,PAYLOAD,2023-10-22 15:10:54,15.08827366,0.0001783,53.2164,65.4779,94.5268,265.5928,-2.2298e-05,-6.43e-06,0.0,0 STARLINK-4534,1 53395U 22097H   23295.63257136 -.00000643  00000-0 -22298-4 0  9991,2 53395  53.2164  65.4779 0001783  94.5268 265.5928 15.08827366 67319,6917.919,95.438,541.017,538.551,0.0
53395.0,STARLINK-4534,PAYLOAD,2023-10-23 11:50:54,15.08850424,0.0001546,53.2168,61.612,100.0985,260.0182,-6.5731e-05,-1.334e-05,0.0,0 STARLINK-4534,1 53395U 22097H   23296.49368216 -.00001334  00000-0 -65731-4 0  9995,2 53395  53.2168  61.6120 0001546 100.0985 260.0182 15.08850424 66959,6917.849,95.437,540.783,538.644,0.0
53395.0,STARLINK-4534,PAYLOAD,2023-10-24 11:41:41,15.08831077,0.0001369,53.2171,57.1521,102.4808,257.6338,0.0001319,1.811e-05,0.0,0 STARLINK-4534,1 53395U 22097H   23297.48728858  .00001811  00000-0  13190-3 0  9996,2 53395  53.2171  57.1521 0001369 102.4808 257.6338 15.08831077 67107,6917.908,95.438,540.72,538.826,0.0
53395.0,STARLINK-4534,PAYLOAD,2023-10-24 14:52:27,15.08833206,0.0001317,53.217,56.5584,97.4633,262.6508,0.00015251,2.14e-05,0.0,0 STARLINK-4534,1 53395U 22097H   23297.61976779  .00002140  00000-0  15251-3 0  9994,2 53395  53.2170  56.5584 0001317  97.4633 262.6508 15.08833206 67617,6917.901,95.438,540.677,538.855,0.0
53395.0,STARLINK-4534,PAYLOAD,2023-10-25 14:43:15,15.08837294,0.0001428,53.2191,52.0978,95.1899,264.9256,3.6868e-05,2.99e-06,0.0,0 STARLINK-4534,1 53395U 22097H   23298.61337163  .00000299  00000-0  36868-4 0  9994,2 53395  53.2191  52.0978 0001428  95.1899 264.9256 15.08837294 67278,6917.889,95.438,540.742,538.766,0.0
53395.0,STARLINK-4534,PAYLOAD,2023-10-26 12:58:38,15.08843485,0.0001481,53.2191,47.9352,99.3744,260.7416,8.9341e-05,1.134e-05,0.0,0 STARLINK-4534,1 53395U 22097H   23299.54072671  .00001134  00000-0  89341-4 0  9990,2 53395  53.2191  47.9352 0001481  99.3744 260.7416 15.08843485 67902,6917.87,95.437,540.759,538.71,0.0
53395.0,STARLINK-4534,PAYLOAD,2023-10-26 14:34:01,15.08849032,0.0001746,53.2195,47.638,102.8215,257.2973,6.6816e-05,7.76e-06,0.0,0 STARLINK-4534,1 53395U 22097H   23299.60696390  .00000776  00000-0  66816-4 0  9990,2 53395  53.2195  47.6380 0001746 102.8215 257.2973 15.08849032 67915,6917.853,95.437,540.926,538.51,0.0
53395.0,STARLINK-4534,PAYLOAD,2023-10-27 00:06:20,15.0884219,0.0001527,53.2194,45.8533,90.5952,269.5216,0.00011078,1.476e-05,0.0,0 STARLINK-4534,1 53395U 22097H   23300.00440674  .00001476  00000-0  11078-3 0  9996,2 53395  53.2194  45.8533 0001527  90.5952 269.5216 15.08842190 67488,6917.874,95.437,540.795,538.682,0.0
53395.0,STARLINK-4534,PAYLOAD,2023-10-27 11:14:02,15.08844202,0.0001515,53.2195,43.7717,90.674,269.4425,8.663e-05,1.091e-05,0.0,0 STARLINK-4534,1 53395U 22097H   23300.46808543  .00001091  00000-0  86630-4 0  9999,2 53395  53.2195  43.7717 0001515  90.6740 269.4425 15.08844202 68043,6917.868,95.437,540.781,538.684,0.0
